[{"OBJECT_NAME":"STARLINK-1036","OBJECT_ID":"2019-074AE","EPOCH":"2026-03-09T14:42:34.223904","MEAN_MOTION":15.55884463,"ECCENTRICITY":0.000315,"INCLINATION":53.0505,"RA_OF_ASC_NODE":188.9272,"ARG_OF_PERICENTER":274.6586,"MEAN_ANOMALY":85.4064,"EPHEMERIS_TYPE":0,"CLASSIFICATION_TYPE":"U","NORAD_CAT_ID":44741,"ELEMENT_SET_NO":999,"REV_AT_EPOCH":34871,"BSTAR":0.0018957,"MEAN_MOTION_DOT":0.00135506,"MEAN_MOTION_DDOT":0},{"OBJECT_NAME":"CZ-4B R\/B","OBJECT_ID":"2024-208C","EPOCH":"2026-03-09T16:49:23.143584","MEAN_MOTION":15.26980605,"ECCENTRICITY":0.01307988,"INCLINATION":97.9574,"RA_OF_ASC_NODE":113.1946,"ARG_OF_PERICENTER":150.913,"MEAN_ANOMALY":209.9477,"EPHEMERIS_TYPE":0,"CLASSIFICATION_TYPE":"U","NORAD_CAT_ID":61938,"ELEMENT_SET_NO":999,"REV_AT_EPOCH":7308,"BSTAR":0.00035146236,"MEAN_MOTION_DOT":0.000119,"MEAN_MOTION_DDOT":0}]
